{"type": "FeatureCollection", "features": [ {"type": "Feature", "properties": {"norad_id": 32171, "name": "FENGYUN 1C DEB", "group": "fengyun-1c-debris", "lat": -63.391358400750086, "lon": -101.65021796973457, "alt_km": 1110.725726035097, "timestamp": "2025-12-02T23:34:15.802176+00:00", "meta": {"OBJECT_NAME": "FENGYUN 1C DEB", "OBJECT_ID": "1999-025CTR", "EPOCH": "2025-11-30T22:04:53.153760", "MEAN_MOTION": 13.42391101, "ECCENTRICITY": 0.04876604, "INCLINATION": 102.8036, "RA_OF_ASC_NODE": 228.7362, "ARG_OF_PERICENTER": 31.3628, "MEAN_ANOMALY": 27.0117, "EPHEMERIS_TYPE": 0, "CLASSIFICATION_TYPE": "U", "NORAD_CAT_ID": 32171, "ELEMENT_SET_NO": 999, "REV_AT_EPOCH": 60457, "BSTAR": 0.0046651875, "MEAN_MOTION_DOT": 5.292e-05, "MEAN_MOTION_DDOT": 0}, "tle": {"line1": "1 32171U 99025CTR 25334.92005965  .00005292  00000+0  46652-2 0  9994", "line2": "2 32171 102.8036 228.7362 0487660  31.3628  27.0117 13.42391101604575"}}, "geometry": {"type": "Point", "coordinates": [-101.65021796973457, -63.391358400750086]}}, {"type": "Feature", "properties": {"norad_id": 32174, "name": "FENGYUN 1C DEB", "group": "fengyun-1c-debris", "lat": 43.990375320308345, "lon": 31.02510118332158, "alt_km": 897.9385895189998, "timestamp": "2025-12-02T23:34:15.802186+00:00", "meta": {"OBJECT_NAME": "FENGYUN 1C DEB", "OBJECT_ID": "1999-025CTU", "EPOCH": "2025-11-24T10:25:59.655072", "MEAN_MOTION": 14.17883196, "ECCENTRICITY": 0.01501888, "INCLINATION": 98.6025, "RA_OF_ASC_NODE": 31.1449, "ARG_OF_PERICENTER": 298.935, "MEAN_ANOMALY": 59.6834, "EPHEMERIS_TYPE": 0, "CLASSIFICATION_TYPE": "U", "NORAD_CAT_ID": 32174, "ELEMENT_SET_NO": 999, "REV_AT_EPOCH": 63846, "BSTAR": 0.00027509636, "MEAN_MOTION_DOT": 5.84e-06, "MEAN_MOTION_DDOT": 0}, "tle": {"line1": "1 32174U 99025CTU 25328.43471823  .00000584  00000+0  27510-3 0  9998", "line2": "2 32174  98.6025  31.1449 0150188 298.9350  59.6834 14.17883196638460"}}, "geometry": {"type": "Point", "coordinates": [31.02510118332158, 43.990375320308345]}}, {"type": "Feature", "properties": {"norad_id": 32175, "name": "FENGYUN 1C DEB", "group": "fengyun-1c-debris", "lat": 25.711287679683785, "lon": -38.318848236092535, "alt_km": 821.2545034390369, "timestamp": "2025-12-02T23:34:15.802196+00:00", "meta": {"OBJECT_NAME": "FENGYUN 1C DEB", "OBJECT_ID": "1999-025CTV", "EPOCH": "2025-11-30T18:04:30.432000", "MEAN_MOTION": 13.94645307, "ECCENTRICITY": 0.01526915, "INCLINATION": 98.8237, "RA_OF_ASC_NODE": 323.8389, "ARG_OF_PERICENTER": 355.8244, "MEAN_ANOMALY": 4.1634, "EPHEMERIS_TYPE": 0, "CLASSIFICATION_TYPE": "U", "NORAD_CAT_ID": 32175, "ELEMENT_SET_NO": 999, "REV_AT_EPOCH": 59673, "BSTAR": 0.0032372864, "MEAN_MOTION_DOT": 4.731e-05, "MEAN_MOTION_DDOT": 0}, "tle": {"line1": "1 32175U 99025CTV 25334.75313000  .00004731  00000+0  32373-2 0  9993", "line2": "2 32175  98.8237 323.8389 0152691 355.8244   4.1634 13.94645307596738"}}, "geometry": {"type": "Point", "coordinates": [-38.318848236092535, 25.711287679683785]}}, {"type": "Feature", "properties": {"norad_id": 32177, "name": "FENGYUN 1C DEB", "group": "fengyun-1c-debris", "lat": 13.330905029219027, "lon": 167.63616982740263, "alt_km": 708.4965924842263, "timestamp": "2025-12-02T23:34:15.802206+00:00", "meta": {"OBJECT_NAME": "FENGYUN 1C DEB", "OBJECT_ID": "1999-025CTX", "EPOCH": "2025-11-29T07:24:03.692448", "MEAN_MOTION": 14.55966647, "ECCENTRICITY": 0.00524557, "INCLINATION": 99.0454, "RA_OF_ASC_NODE": 341.4938, "ARG_OF_PERICENTER": 85.1127, "MEAN_ANOMALY": 275.6054, "EPHEMERIS_TYPE": 0, "CLASSIFICATION_TYPE": "U", "NORAD_CAT_ID": 32177, "ELEMENT_SET_NO": 999, "REV_AT_EPOCH": 70843, "BSTAR": 0.0012780611, "MEAN_MOTION_DOT": 5.674e-05, "MEAN_MOTION_DDOT": 0}, "tle": {"line1": "1 32177U 99025CTX 25333.30837607  .00005674  00000+0  12781-2 0  9997", "line2": "2 32177  99.0454 341.4938 0052455  85.1127 275.6054 14.55966647708434"}}, "geometry": {"type": "Point", "coordinates": [167.63616982740263, 13.330905029219027]}}, {"type": "Feature", "properties": {"norad_id": 32178, "name": "FENGYUN 1C DEB", "group": "fengyun-1c-debris", "lat": 73.77676114164794, "lon": -164.5320371667981, "alt_km": 833.8743871092292, "timestamp": "2025-12-02T23:34:15.802216+00:00", "meta": {"OBJECT_NAME": "FENGYUN 1C DEB", "OBJECT_ID": "1999-025CTY", "EPOCH": "2025-11-26T06:46:13.443456", "MEAN_MOTION": 14.22843314, "ECCENTRICITY": 0.00951304, "INCLINATION": 100.3039, "RA_OF_ASC_NODE": 328.9436, "ARG_OF_PERICENTER": 8.654, "MEAN_ANOMALY": 351.6247, "EPHEMERIS_TYPE": 0, "CLASSIFICATION_TYPE": "U", "NORAD_CAT_ID": 32178, "ELEMENT_SET_NO": 999, "REV_AT_EPOCH": 63769, "BSTAR": 0.0014846781, "MEAN_MOTION_DOT": 3.436e-05, "MEAN_MOTION_DDOT": 0}, "tle": {"line1": "1 32178U 99025CTY 25330.28210004  .00003436  00000+0  14847-2 0  9997", "line2": "2 32178 100.3039 328.9436 0095130   8.6540 351.6247 14.22843314637696"}}, "geometry": {"type": "Point", "coordinates": [-164.5320371667981, 73.77676114164794]}}, {"type": "Feature", "properties": {"norad_id": 32179, "name": "FENGYUN 1C DEB", "group": "fengyun-1c-debris", "lat": 71.42474557689968, "lon": -1.8264920545069125, "alt_km": 957.96411487347, "timestamp": "2025-12-02T23:34:15.802226+00:00", "meta": {"OBJECT_NAME": "FENGYUN 1C DEB", "OBJECT_ID": "1999-025CTZ", "EPOCH": "2025-12-02T02:49:36.295680", "MEAN_MOTION": 14.03672584, "ECCENTRICITY": 0.01446688, "INCLINATION": 98.9109, "RA_OF_ASC_NODE": 25.1565, "ARG_OF_PERICENTER": 219.4831, "MEAN_ANOMALY": 169.8583, "EPHEMERIS_TYPE": 0, "CLASSIFICATION_TYPE": "U", "NORAD_CAT_ID": 32179, "ELEMENT_SET_NO": 999, "REV_AT_EPOCH": 65579, "BSTAR": 0.00010683017, "MEAN_MOTION_DOT": 1.4e-06, "MEAN_MOTION_DDOT": 0}, "tle": {"line1": "1 32179U 99025CTZ 25336.11778120  .00000140  00000+0  10683-3 0  9998", "line2": "2 32179  98.9109  25.1565 0144668 219.4831 169.8583 14.03672584655793"}}, "geometry": {"type": "Point", "coordinates": [-1.8264920545069125, 71.42474557689968]}}, {"type": "Feature", "properties": {"norad_id": 32180, "name": "FENGYUN 1C DEB", "group": "fengyun-1c-debris", "lat": 25.00597485503436, "lon": 12.417312737831462, "alt_km": 1040.159604014233, "timestamp": "2025-12-02T23:34:15.802236+00:00", "meta": {"OBJECT_NAME": "FENGYUN 1C DEB", "OBJECT_ID": "1999-025CUA", "EPOCH": "2025-12-02T09:36:54.933120", "MEAN_MOTION": 13.82323443, "ECCENTRICITY": 0.0136002, "INCLINATION": 99.5873, "RA_OF_ASC_NODE": 16.3475, "ARG_OF_PERICENTER": 237.7733, "MEAN_ANOMALY": 134.7243, "EPHEMERIS_TYPE": 0, "CLASSIFICATION_TYPE": "U", "NORAD_CAT_ID": 32180, "ELEMENT_SET_NO": 999, "REV_AT_EPOCH": 94125, "BSTAR": 0.00014379, "MEAN_MOTION_DOT": 1.19e-06, "MEAN_MOTION_DDOT": 0}, "tle": {"line1": "1 32180U 99025CUA 25336.40063580  .00000119  00000+0  14379-3 0  9991", "line2": "2 32180  99.5873  16.3475 0136002 237.7733 134.7243 13.82323443941255"}}, "geometry": {"type": "Point", "coordinates": [12.417312737831462, 25.00597485503436]}}, {"type": "Feature", "properties": {"norad_id": 32181, "name": "FENGYUN 1C DEB", "group": "fengyun-1c-debris", "lat": -67.12580488353031, "lon": -123.85902531454477, "alt_km": 750.4739808444165, "timestamp": "2025-12-02T23:34:15.802247+00:00", "meta": {"OBJECT_NAME": "FENGYUN 1C DEB", "OBJECT_ID": "1999-025CUB", "EPOCH": "2025-11-30T18:20:52.902816", "MEAN_MOTION": 14.5587127, "ECCENTRICITY": 0.00742263, "INCLINATION": 99.4729, "RA_OF_ASC_NODE": 76.9403, "ARG_OF_PERICENTER": 120.9158, "MEAN_ANOMALY": 31.1571, "EPHEMERIS_TYPE": 0, "CLASSIFICATION_TYPE": "U", "NORAD_CAT_ID": 32181, "ELEMENT_SET_NO": 999, "REV_AT_EPOCH": 96546, "BSTAR": 0.0011280546, "MEAN_MOTION_DOT": 5.08e-05, "MEAN_MOTION_DDOT": 0}, "tle": {"line1": "1 32181U 99025CUB 25334.76450119  .00005080  00000+0  11281-2 0  9997", "line2": "2 32181  99.4729  76.9403 0074226 120.9158  31.1571 14.55871270965461"}}, "geometry": {"type": "Point", "coordinates": [-123.85902531454477, -67.12580488353031]}}, {"type": "Feature", "properties": {"norad_id": 32183, "name": "FENGYUN 1C DEB", "group": "fengyun-1c-debris", "lat": -52.683147230929464, "lon": -163.1173767626311, "alt_km": 891.9794950329733, "timestamp": "2025-12-02T23:34:15.802257+00:00", "meta": {"OBJECT_NAME": "FENGYUN 1C DEB", "OBJECT_ID": "1999-025CUD", "EPOCH": "2025-11-29T02:30:25.585056", "MEAN_MOTION": 14.10035757, "ECCENTRICITY": 0.00433984, "INCLINATION": 98.7148, "RA_OF_ASC_NODE": 24.735, "ARG_OF_PERICENTER": 99.0174, "MEAN_ANOMALY": 261.5912, "EPHEMERIS_TYPE": 0, "CLASSIFICATION_TYPE": "U", "NORAD_CAT_ID": 32183, "ELEMENT_SET_NO": 999, "REV_AT_EPOCH": 72572, "BSTAR": 0.00069136129, "MEAN_MOTION_DOT": 1.189e-05, "MEAN_MOTION_DDOT": 0}, "tle": {"line1": "1 32183U 99025CUD 25333.10446279  .00001189  00000+0  69136-3 0  9997", "line2": "2 32183  98.7148  24.7350 0043398  99.0174 261.5912 14.10035757725726"}}, "geometry": {"type": "Point", "coordinates": [-163.1173767626311, -52.683147230929464]}}, {"type": "Feature", "properties": {"norad_id": 32184, "name": "FENGYUN 1C DEB", "group": "fengyun-1c-debris", "lat": 81.83984053666008, "lon": 19.827570151752063, "alt_km": 414.431835125647, "timestamp": "2025-12-02T23:34:15.802267+00:00", "meta": {"OBJECT_NAME": "FENGYUN 1C DEB", "OBJECT_ID": "1999-025CUE", "EPOCH": "2025-11-29T15:43:46.155648", "MEAN_MOTION": 15.41244079, "ECCENTRICITY": 0.00737243, "INCLINATION": 98.1191, "RA_OF_ASC_NODE": 111.5023, "ARG_OF_PERICENTER": 34.7178, "MEAN_ANOMALY": 325.8845, "EPHEMERIS_TYPE": 0, "CLASSIFICATION_TYPE": "U", "NORAD_CAT_ID": 32184, "ELEMENT_SET_NO": 999, "REV_AT_EPOCH": 98202, "BSTAR": 0.0015682577, "MEAN_MOTION_DOT": 0.00072323, "MEAN_MOTION_DDOT": 0}, "tle": {"line1": "1 32184U 99025CUE 25333.65539532  .00072323  00000+0  15683-2 0  9998", "line2": "2 32184  98.1191 111.5023 0073724  34.7178 325.8845 15.41244079982028"}}, "geometry": {"type": "Point", "coordinates": [19.827570151752063, 81.83984053666008]}}]}